{
  "type": "FeatureCollection",
  "features": [
    {
      "type": "Feature",
      "properties": {
        "norad_id": 2807,
        "name": "OPS 7218 (TRANSIT 16)",
        "group": "nnss",
        "lat": -30.177871843833543,
        "lon": 174.21493594717242,
        "alt_km": 1077.085315600366,
        "timestamp": "2025-12-12T11:38:31.680444+00:00",
        "meta_object_name": "OPS 7218 (TRANSIT 16)",
        "meta_object_id": "1967-048A",
        "meta_epoch": "2025-12-12T02:01:38.938080",
        "meta_mean_motion": 13.50721964,
        "meta_eccentricity": 0.0021931,
        "meta_inclination": 89.6732,
        "meta_ra_of_asc_node": 354.038,
        "meta_arg_of_pericenter": 115.7971,
        "meta_mean_anomaly": 307.1778,
        "meta_ephemeris_type": 0,
        "meta_classification_type": "U",
        "meta_norad_cat_id": 2807,
        "meta_element_set_no": 999,
        "meta_rev_at_epoch": 88267,
        "meta_bstar": 0.00019166,
        "meta_mean_motion_dot": 1.34e-06,
        "meta_mean_motion_ddot": 0,
        "tle_line1": "1 02807U 67048A   25346.08447845  .00000134  00000+0  19166-3 0  9995",
        "tle_line2": "2 02807  89.6732 354.0380 0021931 115.7971 307.1778 13.50721964882676"
      },
      "geometry": {
        "type": "Point",
        "coordinates": [
          174.21493594717242,
          -30.177871843833543
        ]
      }
    },
    {
      "type": "Feature",
      "properties": {
        "norad_id": 2965,
        "name": "OPS 4947 (TRANSIT 17)",
        "group": "nnss",
        "lat": -87.74821055028958,
        "lon": 4.986415289985737,
        "alt_km": 1039.5328766001776,
        "timestamp": "2025-12-12T11:38:31.680469+00:00",
        "meta_object_name": "OPS 4947 (TRANSIT 17)",
        "meta_object_id": "1967-092A",
        "meta_epoch": "2025-12-12T03:31:23.931264",
        "meta_mean_motion": 13.53453258,
        "meta_eccentricity": 0.0046145,
        "meta_inclination": 89.2496,
        "meta_ra_of_asc_node": 24.4809,
        "meta_arg_of_pericenter": 236.2761,
        "meta_mean_anomaly": 188.2519,
        "meta_ephemeris_type": 0,
        "meta_classification_type": "U",
        "meta_norad_cat_id": 2965,
        "meta_element_set_no": 999,
        "meta_rev_at_epoch": 87089,
        "meta_bstar": 0.00024464,
        "meta_mean_motion_dot": 1.76e-06,
        "meta_mean_motion_ddot": 0,
        "tle_line1": "1 02965U 67092A   25346.14680476  .00000176  00000+0  24464-3 0  9998",
        "tle_line2": "2 02965  89.2496  24.4809 0046145 236.2761 188.2519 13.53453258870891"
      },
      "geometry": {
        "type": "Point",
        "coordinates": [
          4.986415289985737,
          -87.74821055028958
        ]
      }
    },
    {
      "type": "Feature",
      "properties": {
        "norad_id": 3133,
        "name": "OPS 7034 (TRANSIT 18)",
        "group": "nnss",
        "lat": 61.871038965527575,
        "lon": -86.41417016170745,
        "alt_km": 1077.106784485707,
        "timestamp": "2025-12-12T11:38:31.680483+00:00",
        "meta_object_name": "OPS 7034 (TRANSIT 18)",
        "meta_object_id": "1968-012A",
        "meta_epoch": "2025-12-11T13:05:39.509088",
        "meta_mean_motion": 13.51565248,
        "meta_eccentricity": 0.00737273,
        "meta_inclination": 90.0279,
        "meta_ra_of_asc_node": 273.6354,
        "meta_arg_of_pericenter": 172.5806,
        "meta_mean_anomaly": 1.6392,
        "meta_ephemeris_type": 0,
        "meta_classification_type": "U",
        "meta_norad_cat_id": 3133,
        "meta_element_set_no": 999,
        "meta_rev_at_epoch": 56902,
        "meta_bstar": 0.00025524024,
        "meta_mean_motion_dot": 1.79e-06,
        "meta_mean_motion_ddot": 0,
        "tle_line1": "1 03133U 68012A   25345.54559617  .00000179  00000+0  25524-3 0  9995",
        "tle_line2": "2 03133  90.0279 273.6354 0073727 172.5806   1.6392 13.51565248569027"
      },
      "geometry": {
        "type": "Point",
        "coordinates": [
          -86.41417016170745,
          61.871038965527575
        ]
      }
    },
    {
      "type": "Feature",
      "properties": {
        "norad_id": 4507,
        "name": "NNSS 19 (TRANSIT 19)",
        "group": "nnss",
        "lat": 36.250046231071515,
        "lon": -125.47032521773853,
        "alt_km": 1089.6959039851317,
        "timestamp": "2025-12-12T11:38:31.680495+00:00",
        "meta_object_name": "NNSS 19 (TRANSIT 19)",
        "meta_object_id": "1970-067A",
        "meta_epoch": "2025-12-12T02:34:42.820320",
        "meta_mean_motion": 13.51314873,
        "meta_eccentricity": 0.0170582,
        "meta_inclination": 90.0055,
        "meta_ra_of_asc_node": 234.5335,
        "meta_arg_of_pericenter": 295.2295,
        "meta_mean_anomaly": 63.1258,
        "meta_ephemeris_type": 0,
        "meta_classification_type": "U",
        "meta_norad_cat_id": 4507,
        "meta_element_set_no": 999,
        "meta_rev_at_epoch": 72213,
        "meta_bstar": 0.00023057,
        "meta_mean_motion_dot": 1.71e-06,
        "meta_mean_motion_ddot": 0,
        "tle_line1": "1 04507U 70067A   25346.10744005  .00000171  00000+0  23057-3 0  9995",
        "tle_line2": "2 04507  90.0055 234.5335 0170582 295.2295  63.1258 13.51314873722135"
      },
      "geometry": {
        "type": "Point",
        "coordinates": [
          -125.47032521773853,
          36.250046231071515
        ]
      }
    },
    {
      "type": "Feature",
      "properties": {
        "norad_id": 6909,
        "name": "NNSS 20 (TRANSIT 20)",
        "group": "nnss",
        "lat": 88.95334001230542,
        "lon": -97.04136195691444,
        "alt_km": 873.1280723899617,
        "timestamp": "2025-12-12T11:38:31.680506+00:00",
        "meta_object_name": "NNSS 20 (TRANSIT 20)",
        "meta_object_id": "1973-081A",
        "meta_epoch": "2025-12-11T17:42:34.169472",
        "meta_mean_motion": 13.71433431,
        "meta_eccentricity": 0.01566261,
        "meta_inclination": 89.8562,
        "meta_ra_of_asc_node": 255.0691,
        "meta_arg_of_pericenter": 81.282,
        "meta_mean_anomaly": 280.6047,
        "meta_ephemeris_type": 0,
        "meta_classification_type": "U",
        "meta_norad_cat_id": 6909,
        "meta_element_set_no": 999,
        "meta_rev_at_epoch": 80347,
        "meta_bstar": 0.00032790531,
        "meta_mean_motion_dot": 3.34e-06,
        "meta_mean_motion_ddot": 0,
        "tle_line1": "1 06909U 73081A   25345.73789548  .00000334  00000+0  32791-3 0  9997",
        "tle_line2": "2 06909  89.8562 255.0691 0156626  81.2820 280.6047 13.71433431803478"
      },
      "geometry": {
        "type": "Point",
        "coordinates": [
          -97.04136195691444,
          88.95334001230542
        ]
      }
    },
    {
      "type": "Feature",
      "properties": {
        "norad_id": 10457,
        "name": "TRANSAT",
        "group": "nnss",
        "lat": 41.345560199369594,
        "lon": 78.91590360401896,
        "alt_km": 1089.0222449058156,
        "timestamp": "2025-12-12T11:38:31.680517+00:00",
        "meta_object_name": "TRANSAT",
        "meta_object_id": "1977-106A",
        "meta_epoch": "2025-12-12T04:38:14.622720",
        "meta_mean_motion": 13.48943514,
        "meta_eccentricity": 0.0025343,
        "meta_inclination": 89.6481,
        "meta_ra_of_asc_node": 78.6164,
        "meta_arg_of_pericenter": 191.0803,
        "meta_mean_anomaly": 233.9899,
        "meta_ephemeris_type": 0,
        "meta_classification_type": "U",
        "meta_norad_cat_id": 10457,
        "meta_element_set_no": 999,
        "meta_rev_at_epoch": 36736,
        "meta_bstar": 0.00017141,
        "meta_mean_motion_dot": 1.18e-06,
        "meta_mean_motion_ddot": 0,
        "tle_line1": "1 10457U 77106A   25346.19322480  .00000118  00000+0  17141-3 0  9993",
        "tle_line2": "2 10457  89.6481  78.6164 0025343 191.0803 233.9899 13.48943514367366"
      },
      "geometry": {
        "type": "Point",
        "coordinates": [
          78.91590360401896,
          41.345560199369594
        ]
      }
    },
    {
      "type": "Feature",
      "properties": {
        "norad_id": 12458,
        "name": "NOVA 1",
        "group": "nnss",
        "lat": -33.615415786957904,
        "lon": 91.29050609586884,
        "alt_km": 1187.3047436328407,
        "timestamp": "2025-12-12T11:38:31.680529+00:00",
        "meta_object_name": "NOVA 1",
        "meta_object_id": "1981-044A",
        "meta_epoch": "2025-12-12T02:59:54.307104",
        "meta_mean_motion": 13.23278469,
        "meta_eccentricity": 0.0015896,
        "meta_inclination": 89.8524,
        "meta_ra_of_asc_node": 91.3938,
        "meta_arg_of_pericenter": 105.5082,
        "meta_mean_anomaly": 306.3851,
        "meta_ephemeris_type": 0,
        "meta_classification_type": "U",
        "meta_norad_cat_id": 12458,
        "meta_element_set_no": 999,
        "meta_rev_at_epoch": 15178,
        "meta_bstar": 0.00019134,
        "meta_mean_motion_dot": 9e-07,
        "meta_mean_motion_ddot": 0,
        "tle_line1": "1 12458U 81044A   25346.12493411  .00000090  00000+0  19134-3 0  9991",
        "tle_line2": "2 12458  89.8524  91.3938 0015896 105.5082 306.3851 13.23278469151784"
      },
      "geometry": {
        "type": "Point",
        "coordinates": [
          91.29050609586884,
          -33.615415786957904
        ]
      }
    }
  ]
}